{
    "links": {
        "self": "http://www.neowsapp.com/rest/v1/neo/3836175?api_key=iIulBulltgU6a56xZRHN4H3l9WmuAYTsLGpBGhQ2"
    },
    "id": "3836175",
    "neo_reference_id": "3836175",
    "name": "(2018 VA7)",
    "designation": "2018 VA7",
    "nasa_jpl_url": "http://ssd.jpl.nasa.gov/sbdb.cgi?sstr=3836175",
    "absolute_magnitude_h": 23.3,
    "estimated_diameter": {
        "kilometers": {
            "estimated_diameter_min": 0.058150704,
            "estimated_diameter_max": 0.130028927
        },
        "meters": {
            "estimated_diameter_min": 58.1507039646,
            "estimated_diameter_max": 130.0289270043
        },
        "miles": {
            "estimated_diameter_min": 0.0361331611,
            "estimated_diameter_max": 0.0807962044
        },
        "feet": {
            "estimated_diameter_min": 190.7831555951,
            "estimated_diameter_max": 426.6041048727
        }
    },
    "is_potentially_hazardous_asteroid": false,
    "close_approach_data": [
        {
            "close_approach_date": "2018-10-25",
            "close_approach_date_full": "2018-Oct-25 15:14",
            "epoch_date_close_approach": 1540480440000,
            "relative_velocity": {
                "kilometers_per_second": "12.4838791709",
                "kilometers_per_hour": "44941.9650151543",
                "miles_per_hour": "27925.189317333"
            },
            "miss_distance": {
                "astronomical": "0.163268117",
                "lunar": "63.511297513",
                "kilometers": "24424562.54211079",
                "miles": "15176719.409837302"
            },
            "orbiting_body": "Earth"
        }
    ],
    "orbital_data": {
        "orbit_id": "2",
        "orbit_determination_date": "2018-11-16 06:25:07",
        "first_observation_date": "2018-11-08",
        "last_observation_date": "2018-11-11",
        "data_arc_in_days": 3,
        "observations_used": 16,
        "orbit_uncertainty": "9",
        "minimum_orbit_intersection": ".162463",
        "jupiter_tisserand_invariant": "4.782",
        "epoch_osculation": "2458431.5",
        "eccentricity": ".1644007534997648",
        "semi_major_axis": "1.347364815655219",
        "inclination": "23.50526878567098",
        "ascending_node_longitude": "37.01000060298792",
        "orbital_period": "571.250022555303",
        "perihelion_distance": "1.125857024722429",
        "perihelion_argument": "321.7802437361257",
        "aphelion_distance": "1.568872606588009",
        "perihelion_time": "2458380.639822408038",
        "mean_anomaly": "32.05192684492849",
        "mean_motion": ".6301969116598998",
        "equinox": "J2000",
        "orbit_class": {
            "orbit_class_type": "AMO",
            "orbit_class_description": "Near-Earth asteroid orbits similar to that of 1221 Amor",
            "orbit_class_range": "1.017 AU < q (perihelion) < 1.3 AU"
        }
    },
    "is_sentry_object": false
}